[{"OBJECT_NAME":"HULIANWANG DIGUI-33","OBJECT_ID":"2025-121D","EPOCH":"2026-03-05T19:05:19.010688","MEAN_MOTION":13.24425384,"ECCENTRICITY":0.0002078,"INCLINATION":86.4968,"RA_OF_ASC_NODE":48.4743,"ARG_OF_PERICENTER":77.6168,"MEAN_ANOMALY":282.5198,"EPHEMERIS_TYPE":0,"CLASSIFICATION_TYPE":"U","NORAD_CAT_ID":64286,"ELEMENT_SET_NO":999,"REV_AT_EPOCH":3647,"BSTAR":1.0075e-5,"MEAN_MOTION_DOT":1.9e-7,"MEAN_MOTION_DDOT":0},{"OBJECT_NAME":"HULIANWANG DIGUI-34","OBJECT_ID":"2025-121E","EPOCH":"2026-03-05T20:43:18.031296","MEAN_MOTION":13.24424344,"ECCENTRICITY":0.0002207,"INCLINATION":86.4946,"RA_OF_ASC_NODE":48.3831,"ARG_OF_PERICENTER":73.6104,"MEAN_ANOMALY":286.5272,"EPHEMERIS_TYPE":0,"CLASSIFICATION_TYPE":"U","NORAD_CAT_ID":64287,"ELEMENT_SET_NO":999,"REV_AT_EPOCH":3648,"BSTAR":1.7408e-5,"MEAN_MOTION_DOT":2.2e-7,"MEAN_MOTION_DDOT":0},{"OBJECT_NAME":"HULIANWANG DIGUI-35","OBJECT_ID":"2025-159A","EPOCH":"2026-03-05T19:55:00.711840","MEAN_MOTION":13.24417256,"ECCENTRICITY":0.000127,"INCLINATION":86.4984,"RA_OF_ASC_NODE":317.3686,"ARG_OF_PERICENTER":72.4409,"MEAN_ANOMALY":287.6863,"EPHEMERIS_TYPE":0,"CLASSIFICATION_TYPE":"U","NORAD_CAT_ID":64956,"ELEMENT_SET_NO":999,"REV_AT_EPOCH":2944,"BSTAR":9.1008e-5,"MEAN_MOTION_DOT":5.4e-7,"MEAN_MOTION_DDOT":0},{"OBJECT_NAME":"HULIANWANG DIGUI-36","OBJECT_ID":"2025-159B","EPOCH":"2026-03-05T19:43:51.263040","MEAN_MOTION":13.24419857,"ECCENTRICITY":0.0001349,"INCLINATION":86.5004,"RA_OF_ASC_NODE":317.409,"ARG_OF_PERICENTER":71.1884,"MEAN_ANOMALY":288.9396,"EPHEMERIS_TYPE":0,"CLASSIFICATION_TYPE":"U","NORAD_CAT_ID":64957,"ELEMENT_SET_NO":999,"REV_AT_EPOCH":2944,"BSTAR":0.00010749,"MEAN_MOTION_DOT":6.1e-7,"MEAN_MOTION_DDOT":0},{"OBJECT_NAME":"HULIANWANG DIGUI-37","OBJECT_ID":"2025-159C","EPOCH":"2026-03-05T19:32:59.653248","MEAN_MOTION":13.24419474,"ECCENTRICITY":0.0001437,"INCLINATION":86.4945,"RA_OF_ASC_NODE":317.2733,"ARG_OF_PERICENTER":68.5048,"MEAN_ANOMALY":291.6239,"EPHEMERIS_TYPE":0,"CLASSIFICATION_TYPE":"U","NORAD_CAT_ID":64958,"ELEMENT_SET_NO":999,"REV_AT_EPOCH":2944,"BSTAR":0.00015038,"MEAN_MOTION_DOT":7.9e-7,"MEAN_MOTION_DDOT":0},{"OBJECT_NAME":"HULIANWANG DIGUI-38","OBJECT_ID":"2025-159D","EPOCH":"2026-03-05T19:22:08.622336","MEAN_MOTION":13.24419631,"ECCENTRICITY":0.0001421,"INCLINATION":86.5004,"RA_OF_ASC_NODE":317.4018,"ARG_OF_PERICENTER":70.9065,"MEAN_ANOMALY":289.2223,"EPHEMERIS_TYPE":0,"CLASSIFICATION_TYPE":"U","NORAD_CAT_ID":64959,"ELEMENT_SET_NO":999,"REV_AT_EPOCH":2944,"BSTAR":0.00016925,"MEAN_MOTION_DOT":8.7e-7,"MEAN_MOTION_DDOT":0},{"OBJECT_NAME":"HULIANWANG DIGUI-39","OBJECT_ID":"2025-159E","EPOCH":"2026-03-05T19:11:14.796384","MEAN_MOTION":13.24419772,"ECCENTRICITY":0.0001425,"INCLINATION":86.4979,"RA_OF_ASC_NODE":317.3441,"ARG_OF_PERICENTER":72.5555,"MEAN_ANOMALY":287.5734,"EPHEMERIS_TYPE":0,"CLASSIFICATION_TYPE":"U","NORAD_CAT_ID":64960,"ELEMENT_SET_NO":999,"REV_AT_EPOCH":2944,"BSTAR":0.00018338,"MEAN_MOTION_DOT":9.3e-7,"MEAN_MOTION_DDOT":0},{"OBJECT_NAME":"HULIANWANG DIGUI-40","OBJECT_ID":"2025-162A","EPOCH":"2026-03-05T19:04:16.483008","MEAN_MOTION":13.29332335,"ECCENTRICITY":0.0001031,"INCLINATION":49.9988,"RA_OF_ASC_NODE":276.7996,"ARG_OF_PERICENTER":75.958,"MEAN_ANOMALY":284.1406,"EPHEMERIS_TYPE":0,"CLASSIFICATION_TYPE":"U","NORAD_CAT_ID":65043,"ELEMENT_SET_NO":999,"REV_AT_EPOCH":2959,"BSTAR":0.00013173,"MEAN_MOTION_DOT":-6.3e-7,"MEAN_MOTION_DDOT":0},{"OBJECT_NAME":"HULIANWANG DIGUI-41","OBJECT_ID":"2025-162B","EPOCH":"2026-03-05T18:52:14.838240","MEAN_MOTION":13.29332667,"ECCENTRICITY":0.0001071,"INCLINATION":49.9999,"RA_OF_ASC_NODE":276.7736,"ARG_OF_PERICENTER":75.6243,"MEAN_ANOMALY":284.4748,"EPHEMERIS_TYPE":0,"CLASSIFICATION_TYPE":"U","NORAD_CAT_ID":65044,"ELEMENT_SET_NO":999,"REV_AT_EPOCH":2960,"BSTAR":0.00010028,"MEAN_MOTION_DOT":-7.8e-7,"MEAN_MOTION_DDOT":0},{"OBJECT_NAME":"HULIANWANG DIGUI-42","OBJECT_ID":"2025-162C","EPOCH":"2026-03-05T18:40:10.699968","MEAN_MOTION":13.29332067,"ECCENTRICITY":0.0001011,"INCLINATION":49.9964,"RA_OF_ASC_NODE":276.6681,"ARG_OF_PERICENTER":77.2913,"MEAN_ANOMALY":282.8072,"EPHEMERIS_TYPE":0,"CLASSIFICATION_TYPE":"U","NORAD_CAT_ID":65045,"ELEMENT_SET_NO":999,"REV_AT_EPOCH":2960,"BSTAR":9.6315e-5,"MEAN_MOTION_DOT":-7.9e-7,"MEAN_MOTION_DDOT":0},{"OBJECT_NAME":"HULIANWANG DIGUI-43","OBJECT_ID":"2025-162D","EPOCH":"2026-03-05T20:16:22.592352","MEAN_MOTION":13.29333159,"ECCENTRICITY":0.0001003,"INCLINATION":49.998,"RA_OF_ASC_NODE":276.3868,"ARG_OF_PERICENTER":75.9339,"MEAN_ANOMALY":284.1644,"EPHEMERIS_TYPE":0,"CLASSIFICATION_TYPE":"U","NORAD_CAT_ID":65046,"ELEMENT_SET_NO":999,"REV_AT_EPOCH":2961,"BSTAR":0.00011621,"MEAN_MOTION_DOT":-7.0e-7,"MEAN_MOTION_DDOT":0},{"OBJECT_NAME":"HULIANWANG DIGUI-44","OBJECT_ID":"2025-162E","EPOCH":"2026-03-05T18:15:39.955104","MEAN_MOTION":13.2934077,"ECCENTRICITY":7.61e-5,"INCLINATION":50.0008,"RA_OF_ASC_NODE":276.6594,"ARG_OF_PERICENTER":355.248,"MEAN_ANOMALY":4.8385,"EPHEMERIS_TYPE":0,"CLASSIFICATION_TYPE":"U","NORAD_CAT_ID":65047,"ELEMENT_SET_NO":999,"REV_AT_EPOCH":2961,"BSTAR":0.00013207,"MEAN_MOTION_DOT":-6.3e-7,"MEAN_MOTION_DDOT":0},{"OBJECT_NAME":"HULIANWANG DIGUI-45","OBJECT_ID":"2025-162F","EPOCH":"2026-03-05T18:04:06.643488","MEAN_MOTION":13.29333001,"ECCENTRICITY":0.0001054,"INCLINATION":50.0037,"RA_OF_ASC_NODE":276.6714,"ARG_OF_PERICENTER":76.5554,"MEAN_ANOMALY":283.5435,"EPHEMERIS_TYPE":0,"CLASSIFICATION_TYPE":"U","NORAD_CAT_ID":65048,"ELEMENT_SET_NO":999,"REV_AT_EPOCH":2960,"BSTAR":0.0001062,"MEAN_MOTION_DOT":-7.5e-7,"MEAN_MOTION_DDOT":0},{"OBJECT_NAME":"HULIANWANG DIGUI-46","OBJECT_ID":"2025-162G","EPOCH":"2026-03-05T17:52:04.734336","MEAN_MOTION":13.29332898,"ECCENTRICITY":0.0001054,"INCLINATION":50.0055,"RA_OF_ASC_NODE":276.6608,"ARG_OF_PERICENTER":78.3286,"MEAN_ANOMALY":281.7705,"EPHEMERIS_TYPE":0,"CLASSIFICATION_TYPE":"U","NORAD_CAT_ID":65049,"ELEMENT_SET_NO":999,"REV_AT_EPOCH":2960,"BSTAR":0.00010241,"MEAN_MOTION_DOT":-7.7e-7,"MEAN_MOTION_DDOT":0},{"OBJECT_NAME":"HULIANWANG DIGUI-47","OBJECT_ID":"2025-162H","EPOCH":"2026-03-05T19:28:18.206976","MEAN_MOTION":13.29332785,"ECCENTRICITY":0.0001039,"INCLINATION":50.002,"RA_OF_ASC_NODE":276.2854,"ARG_OF_PERICENTER":79.8394,"MEAN_ANOMALY":280.2595,"EPHEMERIS_TYPE":0,"CLASSIFICATION_TYPE":"U","NORAD_CAT_ID":65050,"ELEMENT_SET_NO":999,"REV_AT_EPOCH":2961,"BSTAR":0.00012228,"MEAN_MOTION_DOT":-6.7e-7,"MEAN_MOTION_DDOT":0},{"OBJECT_NAME":"HULIANWANG DIGUI-48","OBJECT_ID":"2025-162J","EPOCH":"2026-03-05T19:16:18.385248","MEAN_MOTION":13.29332253,"ECCENTRICITY":0.0001029,"INCLINATION":50.003,"RA_OF_ASC_NODE":276.2592,"ARG_OF_PERICENTER":77.4007,"MEAN_ANOMALY":282.698,"EPHEMERIS_TYPE":0,"CLASSIFICATION_TYPE":"U","NORAD_CAT_ID":65051,"ELEMENT_SET_NO":999,"REV_AT_EPOCH":2961,"BSTAR":0.00011326,"MEAN_MOTION_DOT":-7.1e-7,"MEAN_MOTION_DDOT":0}]
