HULIANWANG DIGUI-33     
1 64286U 25121D   26064.79535892  .00000019  00000+0  10075-4 0  9999
2 64286  86.4968  48.4743 0002078  77.6168 282.5198 13.24425384 36472
HULIANWANG DIGUI-34     
1 64287U 25121E   26064.86340314  .00000022  00000+0  17408-4 0  9992
2 64287  86.4946  48.3831 0002207  73.6104 286.5272 13.24424344 36489
HULIANWANG DIGUI-35     
1 64956U 25159A   26064.82986935  .00000054  00000+0  91008-4 0  9990
2 64956  86.4984 317.3686 0001270  72.4409 287.6863 13.24417256 29445
HULIANWANG DIGUI-36     
1 64957U 25159B   26064.82212110  .00000061  00000+0  10749-3 0  9998
2 64957  86.5004 317.4090 0001349  71.1884 288.9396 13.24419857 29444
HULIANWANG DIGUI-37     
1 64958U 25159C   26064.81457932  .00000079  00000+0  15038-3 0  9996
2 64958  86.4945 317.2733 0001437  68.5048 291.6239 13.24419474 29442
HULIANWANG DIGUI-38     
1 64959U 25159D   26064.80704424  .00000087  00000+0  16925-3 0  9992
2 64959  86.5004 317.4018 0001421  70.9065 289.2223 13.24419631 29448
HULIANWANG DIGUI-39     
1 64960U 25159E   26064.79947681  .00000093  00000+0  18338-3 0  9993
2 64960  86.4979 317.3441 0001425  72.5555 287.5734 13.24419772 29449
HULIANWANG DIGUI-40     
1 65043U 25162A   26064.79463522 -.00000063  00000+0  13173-3 0  9997
2 65043  49.9988 276.7996 0001031  75.9580 284.1406 13.29332335 29596
HULIANWANG DIGUI-41     
1 65044U 25162B   26064.78628285 -.00000078  00000+0  10028-3 0  9998
2 65044  49.9999 276.7736 0001071  75.6243 284.4748 13.29332667 29600
HULIANWANG DIGUI-42     
1 65045U 25162C   26064.77790162 -.00000079  00000+0  96315-4 0  9997
2 65045  49.9964 276.6681 0001011  77.2913 282.8072 13.29332067 29603
HULIANWANG DIGUI-43     
1 65046U 25162D   26064.84470593 -.00000070  00000+0  11621-3 0  9996
2 65046  49.9980 276.3868 0001003  75.9339 284.1644 13.29333159 29618
HULIANWANG DIGUI-44     
1 65047U 25162E   26064.76087911 -.00000063  00000+0  13207-3 0  9990
2 65047  50.0008 276.6594 0000761 355.2480   4.8385 13.29340770 29619
HULIANWANG DIGUI-45     
1 65048U 25162F   26064.75285467 -.00000075  00000+0  10620-3 0  9995
2 65048  50.0037 276.6714 0001054  76.5554 283.5435 13.29333001 29607
HULIANWANG DIGUI-46     
1 65049U 25162G   26064.74449924 -.00000077  00000+0  10241-3 0  9996
2 65049  50.0055 276.6608 0001054  78.3286 281.7705 13.29332898 29605
HULIANWANG DIGUI-47     
1 65050U 25162H   26064.81132184 -.00000067  00000+0  12228-3 0  9999
2 65050  50.0020 276.2854 0001039  79.8394 280.2595 13.29332785 29614
HULIANWANG DIGUI-48     
1 65051U 25162J   26064.80299057 -.00000071  00000+0  11326-3 0  9995
2 65051  50.0030 276.2592 0001029  77.4007 282.6980 13.29332253 29613
